start=new Date('2022-04-17T00:00:00.000Z').valueOf();
sats=[{"EPHEMERIS_TYPE":"0","DECAY_DATE":null,"OBJECT_ID":"2020-006BD","MEAN_MOTION":"15.06400442","COUNTRY_CODE":"US","MEAN_MOTION_DOT":"-0.00000840","NORAD_CAT_ID":"45095","MEAN_ANOMALY":"306.3832","LAUNCH_DATE":"2020-01-29","ELEMENT_SET_NO":"999","TLE_LINE1":"1 45095U 20006BD  22106.86419462 -.00000840  00000-0 -37520-4 0  9997","RCS_SIZE":"LARGE","OBJECT_NAME":"STARLINK-1147","ARG_OF_PERICENTER":"53.7310","CENTER_NAME":"EARTH","MEAN_MOTION_DDOT":"0.0000000000000","REF_FRAME":"TEME","ECCENTRICITY":"0.00016610","TIME_SYSTEM":"UTC","PERIAPSIS":"546.062","OBJECT_TYPE":"PAYLOAD","TLE_LINE2":"2 45095  53.0520 153.9339 0001661  53.7310 306.3832 15.06400442122574","SITE":"AFETR","APOAPSIS":"548.363","PERIOD":"95.592","BSTAR":"-0.00003752000000","FILE":"3404767","MEAN_ELEMENT_THEORY":"SGP4","SEMIMAJOR_AXIS":"6925.347","EPOCH":"2022-04-16T20:44:26.415168","REV_AT_EPOCH":"12257","INCLINATION":"53.0520","RA_OF_ASC_NODE":"153.9339","CLASSIFICATION_TYPE":"U","GP_ID":"201417345"},{"OBJECT_ID":"2020-006BE","DECAY_DATE":null,"EPHEMERIS_TYPE":"0","NORAD_CAT_ID":"45096","MEAN_MOTION_DOT":"-0.00004539","MEAN_MOTION":"15.06387901","COUNTRY_CODE":"US","TLE_LINE1":"1 45096U 20006BE  22106.85683225 -.00004539  00000-0 -28611-3 0  9996","MEAN_ANOMALY":"306.9300","LAUNCH_DATE":"2020-01-29","ELEMENT_SET_NO":"999","REF_FRAME":"TEME","CENTER_NAME":"EARTH","MEAN_MOTION_DDOT":"0.0000000000000","OBJECT_NAME":"STARLINK-1152","ARG_OF_PERICENTER":"53.1840","RCS_SIZE":"LARGE","OBJECT_TYPE":"PAYLOAD","TLE_LINE2":"2 45096  53.0512 153.9709 0001646  53.1840 306.9300 15.06387901122561","TIME_SYSTEM":"UTC","PERIAPSIS":"546.111","ECCENTRICITY":"0.00016460","FILE":"3404767","APOAPSIS":"548.391","PERIOD":"95.593","BSTAR":"-0.00028611000000","SITE":"AFETR","REV_AT_EPOCH":"12256","EPOCH":"2022-04-16T20:33:50.306400","SEMIMAJOR_AXIS":"6925.386","MEAN_ELEMENT_THEORY":"SGP4","GP_ID":"201418096","RA_OF_ASC_NODE":"153.9709","INCLINATION":"53.0512","CLASSIFICATION_TYPE":"U"},{"EPOCH":"2022-04-16T20:07:16.812192","REV_AT_EPOCH":"12256","SEMIMAJOR_AXIS":"6925.338","MEAN_ELEMENT_THEORY":"SGP4","GP_ID":"201418347","INCLINATION":"53.0526","CLASSIFICATION_TYPE":"U","RA_OF_ASC_NODE":"154.0514","OBJECT_TYPE":"PAYLOAD","TLE_LINE2":"2 45098  53.0526 154.0514 0001534  67.8695 292.2457 15.06403428122563","TIME_SYSTEM":"UTC","PERIAPSIS":"546.141","ECCENTRICITY":"0.00015340","FILE":"3404767","PERIOD":"95.592","APOAPSIS":"548.265","BSTAR":"0.00002498600000","SITE":"AFETR","TLE_LINE1":"1 45098U 20006BG  22106.83838903  .00000091  00000-0  24986-4 0  9990","MEAN_ANOMALY":"292.2457","LAUNCH_DATE":"2020-01-29","ELEMENT_SET_NO":"999","REF_FRAME":"TEME","CENTER_NAME":"EARTH","MEAN_MOTION_DDOT":"0.0000000000000","OBJECT_NAME":"STARLINK-1184","ARG_OF_PERICENTER":"67.8695","RCS_SIZE":"LARGE","OBJECT_ID":"2020-006BG","DECAY_DATE":null,"EPHEMERIS_TYPE":"0","NORAD_CAT_ID":"45098","MEAN_MOTION_DOT":"0.00000091","MEAN_MOTION":"15.06403428","COUNTRY_CODE":"US"},{"TIME_SYSTEM":"UTC","PERIAPSIS":"545.950","OBJECT_TYPE":"PAYLOAD","TLE_LINE2":"2 45099  53.0545 155.0999 0001829  45.3737 314.7401 15.06399019122534","ECCENTRICITY":"0.00018290","FILE":"3404767","SITE":"AFETR","APOAPSIS":"548.483","PERIOD":"95.592","BSTAR":"-0.00007368200000","SEMIMAJOR_AXIS":"6925.352","REV_AT_EPOCH":"12253","EPOCH":"2022-04-16T14:32:54.155904","MEAN_ELEMENT_THEORY":"SGP4","CLASSIFICATION_TYPE":"U","RA_OF_ASC_NODE":"155.0999","INCLINATION":"53.0545","GP_ID":"201418594","DECAY_DATE":null,"OBJECT_ID":"2020-006BH","EPHEMERIS_TYPE":"0","MEAN_MOTION_DOT":"-0.00001379","NORAD_CAT_ID":"45099","MEAN_MOTION":"15.06399019","COUNTRY_CODE":"US","TLE_LINE1":"1 45099U 20006BH  22106.60618236 -.00001379  00000-0 -73682-4 0  9990","MEAN_ANOMALY":"314.7401","ELEMENT_SET_NO":"999","LAUNCH_DATE":"2020-01-29","CENTER_NAME":"EARTH","MEAN_MOTION_DDOT":"0.0000000000000","REF_FRAME":"TEME","RCS_SIZE":"LARGE","OBJECT_NAME":"STARLINK-1186","ARG_OF_PERICENTER":"45.3737"},{"MEAN_ANOMALY":"305.7446","ELEMENT_SET_NO":"999","LAUNCH_DATE":"2020-01-29","TLE_LINE1":"1 45100U 20006BJ  22106.83471097 -.00000029  00000-0  16981-4 0  9999","RCS_SIZE":"LARGE","OBJECT_NAME":"STARLINK-1193","ARG_OF_PERICENTER":"54.3701","CENTER_NAME":"EARTH","MEAN_MOTION_DDOT":"0.0000000000000","REF_FRAME":"TEME","EPHEMERIS_TYPE":"0","DECAY_DATE":null,"OBJECT_ID":"2020-006BJ","COUNTRY_CODE":"US","MEAN_MOTION":"15.06397523","MEAN_MOTION_DOT":"-0.00000029","NORAD_CAT_ID":"45100","MEAN_ELEMENT_THEORY":"SGP4","SEMIMAJOR_AXIS":"6925.356","REV_AT_EPOCH":"12256","EPOCH":"2022-04-16T20:01:59.027808","INCLINATION":"53.0553","RA_OF_ASC_NODE":"154.0596","CLASSIFICATION_TYPE":"U","GP_ID":"201417846","ECCENTRICITY":"0.00016970","TIME_SYSTEM":"UTC","PERIAPSIS":"546.046","OBJECT_TYPE":"PAYLOAD","TLE_LINE2":"2 45100  53.0553 154.0596 0001697  54.3701 305.7446 15.06397523122562","SITE":"AFETR","APOAPSIS":"548.396","PERIOD":"95.592","BSTAR":"0.00001698100000","FILE":"3404767"},{"OBJECT_ID":"2020-006BK","DECAY_DATE":null,"EPHEMERIS_TYPE":"0","NORAD_CAT_ID":"45101","MEAN_MOTION_DOT":"-0.00000323","COUNTRY_CODE":"US","MEAN_MOTION":"15.06405446","TLE_LINE1":"1 45101U 20006BK  22106.83101566 -.00000323  00000-0 -27474-5 0  9999","ELEMENT_SET_NO":"999","LAUNCH_DATE":"2020-01-29","MEAN_ANOMALY":"300.5607","REF_FRAME":"TEME","MEAN_MOTION_DDOT":"0.0000000000000","CENTER_NAME":"EARTH","ARG_OF_PERICENTER":"59.5544","OBJECT_NAME":"STARLINK-1194","RCS_SIZE":"LARGE","TLE_LINE2":"2 45101  53.0528 154.0657 0001641  59.5544 300.5607 15.06405446122560","OBJECT_TYPE":"PAYLOAD","PERIAPSIS":"546.060","TIME_SYSTEM":"UTC","ECCENTRICITY":"0.00016410","FILE":"3404767","BSTAR":"-0.00000274740000","PERIOD":"95.592","APOAPSIS":"548.333","SITE":"AFETR","REV_AT_EPOCH":"12256","EPOCH":"2022-04-16T19:56:39.753024","SEMIMAJOR_AXIS":"6925.332","MEAN_ELEMENT_THEORY":"SGP4","GP_ID":"201417596","INCLINATION":"53.0528","CLASSIFICATION_TYPE":"U","RA_OF_ASC_NODE":"154.0657"},{"MEAN_MOTION_DOT":"-0.00001620","NORAD_CAT_ID":"45102","COUNTRY_CODE":"US","MEAN_MOTION":"15.06398495","DECAY_DATE":null,"OBJECT_ID":"2020-006BL","EPHEMERIS_TYPE":"0","CENTER_NAME":"EARTH","MEAN_MOTION_DDOT":"0.0000000000000","REF_FRAME":"TEME","RCS_SIZE":"LARGE","OBJECT_NAME":"STARLINK-1195","ARG_OF_PERICENTER":"58.6870","TLE_LINE1":"1 45102U 20006BL  22106.52139798 -.00001620  00000-0 -89856-4 0  9996","MEAN_ANOMALY":"301.4296","ELEMENT_SET_NO":"999","LAUNCH_DATE":"2020-01-29","FILE":"3404318","SITE":"AFETR","PERIOD":"95.592","APOAPSIS":"548.472","BSTAR":"-0.00008985600000","TIME_SYSTEM":"UTC","PERIAPSIS":"545.964","OBJECT_TYPE":"PAYLOAD","TLE_LINE2":"2 45102  53.0517 155.4791 0001811  58.6870 301.4296 15.06398495122518","ECCENTRICITY":"0.00018110","RA_OF_ASC_NODE":"155.4791","INCLINATION":"53.0517","CLASSIFICATION_TYPE":"U","GP_ID":"201382448","SEMIMAJOR_AXIS":"6925.353","REV_AT_EPOCH":"12251","EPOCH":"2022-04-16T12:30:48.785472","MEAN_ELEMENT_THEORY":"SGP4"},{"TLE_LINE1":"1 45103U 20006BM  22106.81901349 -.00003834  00000-0 -23860-3 0  9999","ELEMENT_SET_NO":"999","LAUNCH_DATE":"2020-01-29","MEAN_ANOMALY":"294.2524","REF_FRAME":"TEME","MEAN_MOTION_DDOT":"0.0000000000000","CENTER_NAME":"EARTH","ARG_OF_PERICENTER":"65.8662","OBJECT_NAME":"STARLINK-1196","RCS_SIZE":"LARGE","OBJECT_ID":"2020-006BM","DECAY_DATE":null,"EPHEMERIS_TYPE":"0","NORAD_CAT_ID":"45103","MEAN_MOTION_DOT":"-0.00003834","COUNTRY_CODE":"US","MEAN_MOTION":"15.06401441","EPOCH":"2022-04-16T19:39:22.765536","REV_AT_EPOCH":"12256","SEMIMAJOR_AXIS":"6925.344","MEAN_ELEMENT_THEORY":"SGP4","GP_ID":"201419095","CLASSIFICATION_TYPE":"U","INCLINATION":"53.0490","RA_OF_ASC_NODE":"154.1856","TLE_LINE2":"2 45103  53.0490 154.1856 0001880  65.8662 294.2524 15.06401441122566","OBJECT_TYPE":"PAYLOAD","PERIAPSIS":"545.907","TIME_SYSTEM":"UTC","ECCENTRICITY":"0.00018800","FILE":"3404767","BSTAR":"-0.00023860000000","PERIOD":"95.592","APOAPSIS":"548.511","SITE":"AFETR"},{"MEAN_ELEMENT_THEORY":"SGP4","SEMIMAJOR_AXIS":"6925.387","EPOCH":"2022-04-16T20:55:03.623808","REV_AT_EPOCH":"12032","RA_OF_ASC_NODE":"313.8981","CLASSIFICATION_TYPE":"U","INCLINATION":"53.0559","GP_ID":"201418104","ECCENTRICITY":"0.00012270","TIME_SYSTEM":"UTC","PERIAPSIS":"546.402","TLE_LINE2":"2 45178  53.0559 313.8981 0001227  95.7550 264.3579 15.06387576120322","OBJECT_TYPE":"PAYLOAD","SITE":"AFETR","BSTAR":"-0.00014324000000","APOAPSIS":"548.101","PERIOD":"95.593","FILE":"3404767","ELEMENT_SET_NO":"999","LAUNCH_DATE":"2020-02-17","MEAN_ANOMALY":"264.3579","TLE_LINE1":"1 45178U 20012A   22106.87156972 -.00002413  00000-0 -14324-3 0  9995","RCS_SIZE":"LARGE","ARG_OF_PERICENTER":"95.7550","OBJECT_NAME":"STARLINK-1138","MEAN_MOTION_DDOT":"0.0000000000000","CENTER_NAME":"EARTH","REF_FRAME":"TEME","EPHEMERIS_TYPE":"0","DECAY_DATE":null,"OBJECT_ID":"2020-012A","MEAN_MOTION":"15.06387576","COUNTRY_CODE":"US","MEAN_MOTION_DOT":"-0.00002413","NORAD_CAT_ID":"45178"},{"OBJECT_NAME":"STARLINK-1143","ARG_OF_PERICENTER":"66.5567","RCS_SIZE":"LARGE","REF_FRAME":"TEME","CENTER_NAME":"EARTH","MEAN_MOTION_DDOT":"0.0000000000000","MEAN_ANOMALY":"293.5587","ELEMENT_SET_NO":"999","LAUNCH_DATE":"2020-02-17","TLE_LINE1":"1 45179U 20012B   22106.87525530  .00000186  00000-0  31374-4 0  9994","COUNTRY_CODE":"US","MEAN_MOTION":"15.06388061","NORAD_CAT_ID":"45179","MEAN_MOTION_DOT":"0.00000186","EPHEMERIS_TYPE":"0","OBJECT_ID":"2020-012B","DECAY_DATE":null,"GP_ID":"201418355","RA_OF_ASC_NODE":"313.8732","INCLINATION":"53.0544","CLASSIFICATION_TYPE":"U","MEAN_ELEMENT_THEORY":"SGP4","EPOCH":"2022-04-16T21:00:22.057920","REV_AT_EPOCH":"12038","SEMIMAJOR_AXIS":"6925.385","APOAPSIS":"548.335","PERIOD":"95.593","BSTAR":"0.00003137400000","SITE":"AFETR","FILE":"3404767","ECCENTRICITY":"0.00015660","OBJECT_TYPE":"PAYLOAD","TLE_LINE2":"2 45179  53.0544 313.8732 0001566  66.5567 293.5587 15.06388061120380","TIME_SYSTEM":"UTC","PERIAPSIS":"546.166"}];
